ORBCOMM FM115           
1 41186U 15081H   25192.50691585  .00000276  00000+0  88198-4 0  9995
2 41186  46.9990 283.8906 0001317 220.4287 139.6503 14.62532372511337
ORBCOMM FM108           
1 41187U 15081J   25192.83740325  .00000402  00000+0  12288-3 0  9996
2 41187  47.0063 350.5583 0001865  70.3806 289.7281 14.58180504510476
ORBCOMM FM117           
1 41188U 15081K   25192.80364140  .00000387  00000+0  11962-3 0  9991
2 41188  47.0026 349.4717 0002476  82.4217 277.6949 14.58184892510438
ORBCOMM FM116           
1 41189U 15081L   25193.13418555  .00000519  00000+0  14786-3 0  9993
2 41189  47.0027  77.7512 0002418 277.7706  82.2905 14.58245750509365
